[
    {
        "Altitude(m)": 556966.800272325,
        "Argument of Periapsis(deg)": 0.006622991110713501,
        "Eccentricity": 0.0,
        "Inclination(deg)": 53.0,
        "Latitude(deg)": 40.09232339382974,
        "Longitude(deg)": 90.11017630863593,
        "Mean Anomaly(deg)": 126.45529286757758,
        "RAAN(deg)": 49.99014336852802,
        "Satellite Name": "Starlink Shell 1 227",
        "Satellite Number": 227,
        "Semi-Major Axis(m)": 6931778.249405717,
        "Time(s)": 190
    },
    {
        "Altitude(m)": 556883.8603283464,
        "Argument of Periapsis(deg)": 0.0069715695902247375,
        "Eccentricity": 0.0,
        "Inclination(deg)": 53.0,
        "Latitude(deg)": 39.701087553500265,
        "Longitude(deg)": 90.70704624005108,
        "Mean Anomaly(deg)": 127.08212407113429,
        "RAAN(deg)": 49.98962459845054,
        "Satellite Name": "Starlink Shell 1 227",
        "Satellite Number": 227,
        "Semi-Major Axis(m)": 6931778.249405717,
        "Time(s)": 200
    },
    {
        "Altitude(m)": 556800.7273477867,
        "Argument of Periapsis(deg)": 0.007320148069735974,
        "Eccentricity": 0.0,
        "Inclination(deg)": 53.0,
        "Latitude(deg)": 39.30635731278223,
        "Longitude(deg)": 91.29672531221098,
        "Mean Anomaly(deg)": 127.70895527469104,
        "RAAN(deg)": 49.98910582837308,
        "Satellite Name": "Starlink Shell 1 227",
        "Satellite Number": 227,
        "Semi-Major Axis(m)": 6931778.249405717,
        "Time(s)": 210
    },
    {
        "Altitude(m)": 556717.4555033203,
        "Argument of Periapsis(deg)": 0.007668726549247212,
        "Eccentricity": 0.0,
        "Inclination(deg)": 53.0,
        "Latitude(deg)": 38.90821865095384,
        "Longitude(deg)": 91.87933204162238,
        "Mean Anomaly(deg)": 128.33578647824774,
        "RAAN(deg)": 49.9885870582956,
        "Satellite Name": "Starlink Shell 1 227",
        "Satellite Number": 227,
        "Semi-Major Axis(m)": 6931778.249405717,
        "Time(s)": 220
    },
    {
        "Altitude(m)": 556634.0992483015,
        "Argument of Periapsis(deg)": 0.00801730502875845,
        "Eccentricity": 0.0,
        "Inclination(deg)": 53.0,
        "Latitude(deg)": 38.50675573542033,
        "Longitude(deg)": 92.45498567360431,
        "Mean Anomaly(deg)": 128.9626176818044,
        "RAAN(deg)": 49.98806828821812,
        "Satellite Name": "Starlink Shell 1 227",
        "Satellite Number": 227,
        "Semi-Major Axis(m)": 6931778.249405717,
        "Time(s)": 230
    },
    {
        "Altitude(m)": 556550.7132890433,
        "Argument of Periapsis(deg)": 0.008365883508269684,
        "Eccentricity": 0.0,
        "Inclination(deg)": 53.0,
        "Latitude(deg)": 38.10205094032917,
        "Longitude(deg)": 93.02380648203379,
        "Mean Anomaly(deg)": 129.58944888536115,
        "RAAN(deg)": 49.98754951814066,
        "Satellite Name": "Starlink Shell 1 227",
        "Satellite Number": 227,
        "Semi-Major Axis(m)": 6931778.249405717,
        "Time(s)": 240
    },
    {
        "Altitude(m)": 556467.3525569171,
        "Argument of Periapsis(deg)": 0.008714461987780921,
        "Eccentricity": 0.0,
        "Inclination(deg)": 53.0,
        "Latitude(deg)": 37.69418486742908,
        "Longitude(deg)": 93.58591457080252,
        "Mean Anomaly(deg)": 130.2162800889179,
        "RAAN(deg)": 49.987030748063184,
        "Satellite Name": "Starlink Shell 1 227",
        "Satellite Number": 227,
        "Semi-Major Axis(m)": 6931778.249405717,
        "Time(s)": 250
    },
    {
        "Altitude(m)": 556384.0721803217,
        "Argument of Periapsis(deg)": 0.009063040467292158,
        "Eccentricity": 0.0,
        "Inclination(deg)": 53.0,
        "Latitude(deg)": 37.283236368928364,
        "Longitude(deg)": 94.14143020212964,
        "Mean Anomaly(deg)": 130.84311129247462,
        "RAAN(deg)": 49.98651197798571,
        "Satellite Name": "Starlink Shell 1 227",
        "Satellite Number": 227,
        "Semi-Major Axis(m)": 6931778.249405717,
        "Time(s)": 260
    },
    {
        "Altitude(m)": 556300.9274564716,
        "Argument of Periapsis(deg)": 0.009411618946803396,
        "Eccentricity": 0.0,
        "Inclination(deg)": 53.0,
        "Latitude(deg)": 36.86928257212437,
        "Longitude(deg)": 94.69047413823918,
        "Mean Anomaly(deg)": 131.4699424960313,
        "RAAN(deg)": 49.985993207908244,
        "Satellite Name": "Starlink Shell 1 227",
        "Satellite Number": 227,
        "Semi-Major Axis(m)": 6931778.249405717,
        "Time(s)": 270
    },
    {
        "Altitude(m)": 556217.9738231013,
        "Argument of Periapsis(deg)": 0.009760197426314633,
        "Eccentricity": 0.0,
        "Inclination(deg)": 53.0,
        "Latitude(deg)": 36.452398905590016,
        "Longitude(deg)": 95.23316648291195,
        "Mean Anomaly(deg)": 132.09677369958803,
        "RAAN(deg)": 49.98547443783077,
        "Satellite Name": "Starlink Shell 1 227",
        "Satellite Number": 227,
        "Semi-Major Axis(m)": 6931778.249405717,
        "Time(s)": 280
    },
    {
        "Altitude(m)": 556135.2668300219,
        "Argument of Periapsis(deg)": 0.01010877590582587,
        "Eccentricity": 0.0,
        "Inclination(deg)": 53.0,
        "Latitude(deg)": 36.03265912671915,
        "Longitude(deg)": 95.76962704804782,
        "Mean Anomaly(deg)": 132.72360490314475,
        "RAAN(deg)": 49.98495566775329,
        "Satellite Name": "Starlink Shell 1 227",
        "Satellite Number": 227,
        "Semi-Major Axis(m)": 6931778.249405717,
        "Time(s)": 290
    },
    {
        "Altitude(m)": 556052.8621105899,
        "Argument of Periapsis(deg)": 0.010457354385337106,
        "Eccentricity": 0.0,
        "Inclination(deg)": 53.0,
        "Latitude(deg)": 35.61013535044424,
        "Longitude(deg)": 96.29997573175692,
        "Mean Anomaly(deg)": 133.35043610670147,
        "RAAN(deg)": 49.98443689767581,
        "Satellite Name": "Starlink Shell 1 227",
        "Satellite Number": 227,
        "Semi-Major Axis(m)": 6931778.249405717,
        "Time(s)": 300
    },
    {
        "Altitude(m)": 555970.815353102,
        "Argument of Periapsis(deg)": 0.010805932864848343,
        "Eccentricity": 0.0,
        "Inclination(deg)": 53.0,
        "Latitude(deg)": 35.18489807895567,
        "Longitude(deg)": 96.82433139450492,
        "Mean Anomaly(deg)": 133.97726731025816,
        "RAAN(deg)": 49.983918127598336,
        "Satellite Name": "Starlink Shell 1 227",
        "Satellite Number": 227,
        "Semi-Major Axis(m)": 6931778.249405717,
        "Time(s)": 310
    },
    {
        "Altitude(m)": 555889.182272078,
        "Argument of Periapsis(deg)": 0.01115451134435958,
        "Eccentricity": 0.0,
        "Inclination(deg)": 53.0,
        "Latitude(deg)": 34.757016232263844,
        "Longitude(deg)": 97.34281225847656,
        "Mean Anomaly(deg)": 134.60409851381488,
        "RAAN(deg)": 49.983399357520874,
        "Satellite Name": "Starlink Shell 1 227",
        "Satellite Number": 227,
        "Semi-Major Axis(m)": 6931778.249405717,
        "Time(s)": 320
    },
    {
        "Altitude(m)": 555808.0185795393,
        "Argument of Periapsis(deg)": 0.011503089823870818,
        "Eccentricity": 0.0,
        "Inclination(deg)": 53.0,
        "Latitude(deg)": 34.326557179456444,
        "Longitude(deg)": 97.85553631670992,
        "Mean Anomaly(deg)": 135.23092971737162,
        "RAAN(deg)": 49.9828805874434,
        "Satellite Name": "Starlink Shell 1 227",
        "Satellite Number": 227,
        "Semi-Major Axis(m)": 6931778.249405717,
        "Time(s)": 330
    },
    {
        "Altitude(m)": 555727.3799561923,
        "Argument of Periapsis(deg)": 0.011851668303382053,
        "Eccentricity": 0.0,
        "Inclination(deg)": 53.0,
        "Latitude(deg)": 33.893586770517466,
        "Longitude(deg)": 98.36262023856906,
        "Mean Anomaly(deg)": 135.8577609209283,
        "RAAN(deg)": 49.98236181736592,
        "Satellite Name": "Starlink Shell 1 227",
        "Satellite Number": 227,
        "Semi-Major Axis(m)": 6931778.249405717,
        "Time(s)": 340
    },
    {
        "Altitude(m)": 555647.3220226006,
        "Argument of Periapsis(deg)": 0.012200246782893292,
        "Eccentricity": 0.0,
        "Inclination(deg)": 53.0,
        "Latitude(deg)": 33.45816936858301,
        "Longitude(deg)": 98.86417979676636,
        "Mean Anomaly(deg)": 136.48459212448503,
        "RAAN(deg)": 49.98184304728846,
        "Satellite Name": "Starlink Shell 1 227",
        "Satellite Number": 227,
        "Semi-Major Axis(m)": 6931778.249405717,
        "Time(s)": 350
    },
    {
        "Altitude(m)": 555567.9003103584,
        "Argument of Periapsis(deg)": 0.012548825262404526,
        "Eccentricity": 0.0,
        "Inclination(deg)": 53.0,
        "Latitude(deg)": 33.0203678825207,
        "Longitude(deg)": 99.36033030253799,
        "Mean Anomaly(deg)": 137.11142332804175,
        "RAAN(deg)": 49.98132427721098,
        "Satellite Name": "Starlink Shell 1 227",
        "Satellite Number": 227,
        "Semi-Major Axis(m)": 6931778.249405717,
        "Time(s)": 360
    },
    {
        "Altitude(m)": 555489.1702332441,
        "Argument of Periapsis(deg)": 0.012897403741915765,
        "Eccentricity": 0.0,
        "Inclination(deg)": 53.0,
        "Latitude(deg)": 32.58024379973006,
        "Longitude(deg)": 99.85118553559504,
        "Mean Anomaly(deg)": 137.73825453159847,
        "RAAN(deg)": 49.9808055071335,
        "Satellite Name": "Starlink Shell 1 227",
        "Satellite Number": 227,
        "Semi-Major Axis(m)": 6931778.249405717,
        "Time(s)": 370
    }
]